STARLINK-36471          
1 67324U 26002V   26028.91668981 -.01012800  00000+0 -18489-1 0  9992
2 67324  42.9993 191.5923 0002434 281.1859 181.1909 15.51232402  5028
STARLINK-36473          
1 67325U 26002W   26028.91668981 -.01006572  00000+0 -18367-1 0  9997
2 67325  42.9994 191.5965 0002380 286.3779 174.0855 15.51228512  5189
STARLINK-36430          
1 67326U 26002X   26028.91668981 -.01023791  00000+0 -18706-1 0  9997
2 67326  42.9991 191.5815 0002457 281.2443 184.9676 15.51236064  5180
STARLINK-36501          
1 67327U 26002Y   26028.91668981 -.01027153  00000+0 -18771-1 0  9996
2 67327  42.9991 191.5874 0002422 281.4123 182.8820 15.51239370  5029
STARLINK-36489          
1 67328U 26002Z   26028.91668981 -.00944047  00000+0 -17131-1 0  9995
2 67328  42.9991 191.5777 0001798 286.7391 181.3895 15.51226830  5182
STARLINK-36496          
1 67329U 26002AA  26028.91668981 -.01026556  00000+0 -18761-1 0  9993
2 67329  42.9991 191.5666 0002414 281.8294 190.1297 15.51236805  5002
STARLINK-36483          
1 67330U 26002AB  26028.91668981 -.00938099  00000+0 -17016-1 0  9990
2 67330  42.9991 191.5570 0001860 287.5056 188.2895 15.51221666  5181
STARLINK-36494          
1 67331U 26002AC  26028.91668981 -.01024296  00000+0 -18716-1 0  9995
2 67331  42.9993 191.5717 0002486 285.9077 184.1337 15.51236711  5180
STARLINK-36492          
1 67332U 26002AD  26028.91668981 -.00948279  00000+0 -17213-1 0  9992
2 67332  42.9992 191.5622 0001738 289.7688 184.1076 15.51228979  5181
STARLINK-36427          
1 67333U 26002AE  26028.91668981 -.01363653  00000+0 -31550-1 0  9991
2 67333  42.9993 191.5504 0001847 282.2456 188.9660 15.44910282  5081
STARLINK-35343          
1 67334U 26003A   26028.91668981 -.02077838  00000+0 -22457-1 0  9997
2 67334  43.0003  94.3996 0001144 265.6801 321.2207 15.66133796  4225
STARLINK-36486          
1 67335U 26003B   26028.91668981 -.02076252  00000+0 -22440-1 0  9999
2 67335  43.0004  94.3947 0001125 268.3282 320.4925 15.66130790  4280
