CCSDS_OMM_VERS = 2.0
CREATION_DATE  = 
ORIGINATOR     = 

OBJECT_NAME    = STARLINK-36471
OBJECT_ID      = 2026-002V
CENTER_NAME    = EARTH
REF_FRAME      = TEME
TIME_SYSTEM    = UTC
MEAN_ELEMENT_THEORY = SGP/SGP4

EPOCH          = 2026-01-28T22:00:01.999584
MEAN_MOTION    = 15.51232402
ECCENTRICITY   = .00024345
INCLINATION    = 42.9993
RA_OF_ASC_NODE = 191.5923
ARG_OF_PERICENTER = 281.1859
MEAN_ANOMALY   = 181.1909

EPHEMERIS_TYPE = 0
CLASSIFICATION_TYPE = U
NORAD_CAT_ID   = 67324
ELEMENT_SET_NO = 999
REV_AT_EPOCH   = 502
BSTAR          = -.18488799E-1
MEAN_MOTION_DOT = -.10128E-1
MEAN_MOTION_DDOT = 0

CCSDS_OMM_VERS = 2.0
CREATION_DATE  = 
ORIGINATOR     = 

OBJECT_NAME    = STARLINK-36473
OBJECT_ID      = 2026-002W
CENTER_NAME    = EARTH
REF_FRAME      = TEME
TIME_SYSTEM    = UTC
MEAN_ELEMENT_THEORY = SGP/SGP4

EPOCH          = 2026-01-28T22:00:01.999584
MEAN_MOTION    = 15.51228512
ECCENTRICITY   = .00023806
INCLINATION    = 42.9994
RA_OF_ASC_NODE = 191.5965
ARG_OF_PERICENTER = 286.3779
MEAN_ANOMALY   = 174.0855

EPHEMERIS_TYPE = 0
CLASSIFICATION_TYPE = U
NORAD_CAT_ID   = 67325
ELEMENT_SET_NO = 999
REV_AT_EPOCH   = 518
BSTAR          = -.18367335E-1
MEAN_MOTION_DOT = -.1006572E-1
MEAN_MOTION_DDOT = 0

CCSDS_OMM_VERS = 2.0
CREATION_DATE  = 
ORIGINATOR     = 

OBJECT_NAME    = STARLINK-36430
OBJECT_ID      = 2026-002X
CENTER_NAME    = EARTH
REF_FRAME      = TEME
TIME_SYSTEM    = UTC
MEAN_ELEMENT_THEORY = SGP/SGP4

EPOCH          = 2026-01-28T22:00:01.999584
MEAN_MOTION    = 15.51236064
ECCENTRICITY   = .00024578
INCLINATION    = 42.9991
RA_OF_ASC_NODE = 191.5815
ARG_OF_PERICENTER = 281.2443
MEAN_ANOMALY   = 184.9676

EPHEMERIS_TYPE = 0
CLASSIFICATION_TYPE = U
NORAD_CAT_ID   = 67326
ELEMENT_SET_NO = 999
REV_AT_EPOCH   = 518
BSTAR          = -.18706003E-1
MEAN_MOTION_DOT = -.1023791E-1
MEAN_MOTION_DDOT = 0

CCSDS_OMM_VERS = 2.0
CREATION_DATE  = 
ORIGINATOR     = 

OBJECT_NAME    = STARLINK-36501
OBJECT_ID      = 2026-002Y
CENTER_NAME    = EARTH
REF_FRAME      = TEME
TIME_SYSTEM    = UTC
MEAN_ELEMENT_THEORY = SGP/SGP4

EPOCH          = 2026-01-28T22:00:01.999584
MEAN_MOTION    = 15.51239370
ECCENTRICITY   = .0002422
INCLINATION    = 42.9991
RA_OF_ASC_NODE = 191.5874
ARG_OF_PERICENTER = 281.4123
MEAN_ANOMALY   = 182.8820

EPHEMERIS_TYPE = 0
CLASSIFICATION_TYPE = U
NORAD_CAT_ID   = 67327
ELEMENT_SET_NO = 999
REV_AT_EPOCH   = 502
BSTAR          = -.18771296E-1
MEAN_MOTION_DOT = -.1027153E-1
MEAN_MOTION_DDOT = 0

CCSDS_OMM_VERS = 2.0
CREATION_DATE  = 
ORIGINATOR     = 

OBJECT_NAME    = STARLINK-36489
OBJECT_ID      = 2026-002Z
CENTER_NAME    = EARTH
REF_FRAME      = TEME
TIME_SYSTEM    = UTC
MEAN_ELEMENT_THEORY = SGP/SGP4

EPOCH          = 2026-01-28T22:00:01.999584
MEAN_MOTION    = 15.51226830
ECCENTRICITY   = .00017983
INCLINATION    = 42.9991
RA_OF_ASC_NODE = 191.5777
ARG_OF_PERICENTER = 286.7391
MEAN_ANOMALY   = 181.3895

EPHEMERIS_TYPE = 0
CLASSIFICATION_TYPE = U
NORAD_CAT_ID   = 67328
ELEMENT_SET_NO = 999
REV_AT_EPOCH   = 518
BSTAR          = -.17130515E-1
MEAN_MOTION_DOT = -.944047E-2
MEAN_MOTION_DDOT = 0

CCSDS_OMM_VERS = 2.0
CREATION_DATE  = 
ORIGINATOR     = 

OBJECT_NAME    = STARLINK-36496
OBJECT_ID      = 2026-002AA
CENTER_NAME    = EARTH
REF_FRAME      = TEME
TIME_SYSTEM    = UTC
MEAN_ELEMENT_THEORY = SGP/SGP4

EPOCH          = 2026-01-28T22:00:01.999584
MEAN_MOTION    = 15.51236805
ECCENTRICITY   = .00024146
INCLINATION    = 42.9991
RA_OF_ASC_NODE = 191.5666
ARG_OF_PERICENTER = 281.8294
MEAN_ANOMALY   = 190.1297

EPHEMERIS_TYPE = 0
CLASSIFICATION_TYPE = U
NORAD_CAT_ID   = 67329
ELEMENT_SET_NO = 999
REV_AT_EPOCH   = 500
BSTAR          = -.18761118E-1
MEAN_MOTION_DOT = -.1026556E-1
MEAN_MOTION_DDOT = 0

CCSDS_OMM_VERS = 2.0
CREATION_DATE  = 
ORIGINATOR     = 

OBJECT_NAME    = STARLINK-36483
OBJECT_ID      = 2026-002AB
CENTER_NAME    = EARTH
REF_FRAME      = TEME
TIME_SYSTEM    = UTC
MEAN_ELEMENT_THEORY = SGP/SGP4

EPOCH          = 2026-01-28T22:00:01.999584
MEAN_MOTION    = 15.51221666
ECCENTRICITY   = .00018603
INCLINATION    = 42.9991
RA_OF_ASC_NODE = 191.5570
ARG_OF_PERICENTER = 287.5056
MEAN_ANOMALY   = 188.2895

EPHEMERIS_TYPE = 0
CLASSIFICATION_TYPE = U
NORAD_CAT_ID   = 67330
ELEMENT_SET_NO = 999
REV_AT_EPOCH   = 518
BSTAR          = -.17016083E-1
MEAN_MOTION_DOT = -.938099E-2
MEAN_MOTION_DDOT = 0

CCSDS_OMM_VERS = 2.0
CREATION_DATE  = 
ORIGINATOR     = 

OBJECT_NAME    = STARLINK-36494
OBJECT_ID      = 2026-002AC
CENTER_NAME    = EARTH
REF_FRAME      = TEME
TIME_SYSTEM    = UTC
MEAN_ELEMENT_THEORY = SGP/SGP4

EPOCH          = 2026-01-28T22:00:01.999584
MEAN_MOTION    = 15.51236711
ECCENTRICITY   = .00024862
INCLINATION    = 42.9993
RA_OF_ASC_NODE = 191.5717
ARG_OF_PERICENTER = 285.9077
MEAN_ANOMALY   = 184.1337

EPHEMERIS_TYPE = 0
CLASSIFICATION_TYPE = U
NORAD_CAT_ID   = 67331
ELEMENT_SET_NO = 999
REV_AT_EPOCH   = 518
BSTAR          = -.18715521E-1
MEAN_MOTION_DOT = -.1024296E-1
MEAN_MOTION_DDOT = 0

CCSDS_OMM_VERS = 2.0
CREATION_DATE  = 
ORIGINATOR     = 

OBJECT_NAME    = STARLINK-36492
OBJECT_ID      = 2026-002AD
CENTER_NAME    = EARTH
REF_FRAME      = TEME
TIME_SYSTEM    = UTC
MEAN_ELEMENT_THEORY = SGP/SGP4

EPOCH          = 2026-01-28T22:00:01.999584
MEAN_MOTION    = 15.51228979
ECCENTRICITY   = .00017387
INCLINATION    = 42.9992
RA_OF_ASC_NODE = 191.5622
ARG_OF_PERICENTER = 289.7688
MEAN_ANOMALY   = 184.1076

EPHEMERIS_TYPE = 0
CLASSIFICATION_TYPE = U
NORAD_CAT_ID   = 67332
ELEMENT_SET_NO = 999
REV_AT_EPOCH   = 518
BSTAR          = -.17213031E-1
MEAN_MOTION_DOT = -.948279E-2
MEAN_MOTION_DDOT = 0

CCSDS_OMM_VERS = 2.0
CREATION_DATE  = 
ORIGINATOR     = 

OBJECT_NAME    = STARLINK-36427
OBJECT_ID      = 2026-002AE
CENTER_NAME    = EARTH
REF_FRAME      = TEME
TIME_SYSTEM    = UTC
MEAN_ELEMENT_THEORY = SGP/SGP4

EPOCH          = 2026-01-28T22:00:01.999584
MEAN_MOTION    = 15.44910282
ECCENTRICITY   = .00018479
INCLINATION    = 42.9993
RA_OF_ASC_NODE = 191.5504
ARG_OF_PERICENTER = 282.2456
MEAN_ANOMALY   = 188.9660

EPHEMERIS_TYPE = 0
CLASSIFICATION_TYPE = U
NORAD_CAT_ID   = 67333
ELEMENT_SET_NO = 999
REV_AT_EPOCH   = 508
BSTAR          = -.31549858E-1
MEAN_MOTION_DOT = -.1363653E-1
MEAN_MOTION_DDOT = 0

CCSDS_OMM_VERS = 2.0
CREATION_DATE  = 
ORIGINATOR     = 

OBJECT_NAME    = STARLINK-35343
OBJECT_ID      = 2026-003A
CENTER_NAME    = EARTH
REF_FRAME      = TEME
TIME_SYSTEM    = UTC
MEAN_ELEMENT_THEORY = SGP/SGP4

EPOCH          = 2026-01-28T22:00:01.999584
MEAN_MOTION    = 15.66133796
ECCENTRICITY   = .00011445
INCLINATION    = 43.0003
RA_OF_ASC_NODE = 94.3996
ARG_OF_PERICENTER = 265.6801
MEAN_ANOMALY   = 321.2207

EPHEMERIS_TYPE = 0
CLASSIFICATION_TYPE = U
NORAD_CAT_ID   = 67334
ELEMENT_SET_NO = 999
REV_AT_EPOCH   = 422
BSTAR          = -.2245706E-1
MEAN_MOTION_DOT = -.2077838E-1
MEAN_MOTION_DDOT = 0

CCSDS_OMM_VERS = 2.0
CREATION_DATE  = 
ORIGINATOR     = 

OBJECT_NAME    = STARLINK-36486
OBJECT_ID      = 2026-003B
CENTER_NAME    = EARTH
REF_FRAME      = TEME
TIME_SYSTEM    = UTC
MEAN_ELEMENT_THEORY = SGP/SGP4

EPOCH          = 2026-01-28T22:00:01.999584
MEAN_MOTION    = 15.66130790
ECCENTRICITY   = .0001125
INCLINATION    = 43.0004
RA_OF_ASC_NODE = 94.3947
ARG_OF_PERICENTER = 268.3282
MEAN_ANOMALY   = 320.4925

EPHEMERIS_TYPE = 0
CLASSIFICATION_TYPE = U
NORAD_CAT_ID   = 67335
ELEMENT_SET_NO = 999
REV_AT_EPOCH   = 428
BSTAR          = -.22440363E-1
MEAN_MOTION_DOT = -.2076252E-1
MEAN_MOTION_DDOT = 0

